STARLINK-1297
1 45395U 20019AM  26061.16133730  .00103803  00000+0  16530-2 0  9998
2 45395  53.0493 167.0067 0003050 350.2461   9.8489 15.52469369328245
STARLINK-1626
1 46167U 20057BC  26061.25002314  .00141841  00000+0  22407-2 0  9995
2 46167  53.0499 330.1707 0008602 100.6627  32.4896 15.52491994  5955
